[
    {
        "OBJECT_NAME": "GSAT0207 (GALILEO 15)",
        "OBJECT_ID": "2016-069A",
        "EPOCH": "2025-11-15T05:29:54.301344",
        "MEAN_MOTION": 1.70474267,
        "ECCENTRICITY": 0.00019575,
        "INCLINATION": 55.3659,
        "RA_OF_ASC_NODE": 107.0118,
        "ARG_OF_PERICENTER": 337.0942,
        "MEAN_ANOMALY": 22.8824,
        "EPHEMERIS_TYPE": 0,
        "CLASSIFICATION_TYPE": "U",
        "NORAD_CAT_ID": 41859,
        "ELEMENT_SET_NO": 999,
        "REV_AT_EPOCH": 5575,
        "BSTAR": 0,
        "MEAN_MOTION_DOT": 4.0e-7,
        "MEAN_MOTION_DDOT": 0
    },
    {
        "OBJECT_NAME": "GSAT0212 (GALILEO 16)",
        "OBJECT_ID": "2016-069B",
        "EPOCH": "2025-11-16T20:13:14.850336",
        "MEAN_MOTION": 1.70474521,
        "ECCENTRICITY": 0.00025009,
        "INCLINATION": 55.3642,
        "RA_OF_ASC_NODE": 106.9626,
        "ARG_OF_PERICENTER": 40.4027,
        "MEAN_ANOMALY": 319.594,
        "EPHEMERIS_TYPE": 0,
        "CLASSIFICATION_TYPE": "U",
        "NORAD_CAT_ID": 41860,
        "ELEMENT_SET_NO": 999,
        "REV_AT_EPOCH": 5603,
        "BSTAR": 0,
        "MEAN_MOTION_DOT": 3.4e-7,
        "MEAN_MOTION_DDOT": 0
    },
    {
        "OBJECT_NAME": "GSAT0213 (GALILEO 17)",
        "OBJECT_ID": "2016-069C",
        "EPOCH": "2025-11-16T00:53:15.008064",
        "MEAN_MOTION": 1.70474784,
        "ECCENTRICITY": 0.00017054,
        "INCLINATION": 55.3658,
        "RA_OF_ASC_NODE": 106.9924,
        "ARG_OF_PERICENTER": 287.8702,
        "MEAN_ANOMALY": 72.0933,
        "EPHEMERIS_TYPE": 0,
        "CLASSIFICATION_TYPE": "U",
        "NORAD_CAT_ID": 41861,
        "ELEMENT_SET_NO": 999,
        "REV_AT_EPOCH": 5588,
        "BSTAR": 0,
        "MEAN_MOTION_DOT": 3.7e-7,
        "MEAN_MOTION_DDOT": 0
    },
    {
        "OBJECT_NAME": "GSAT0214 (GALILEO 18)",
        "OBJECT_ID": "2016-069D",
        "EPOCH": "2025-11-17T22:37:27.903648",
        "MEAN_MOTION": 1.70474633,
        "ECCENTRICITY": 7.88e-5,
        "INCLINATION": 55.3657,
        "RA_OF_ASC_NODE": 106.9327,
        "ARG_OF_PERICENTER": 302.0857,
        "MEAN_ANOMALY": 57.8792,
        "EPHEMERIS_TYPE": 0,
        "CLASSIFICATION_TYPE": "U",
        "NORAD_CAT_ID": 41862,
        "ELEMENT_SET_NO": 999,
        "REV_AT_EPOCH": 5604,
        "BSTAR": 0,
        "MEAN_MOTION_DOT": 3.0e-7,
        "MEAN_MOTION_DDOT": 0
    },
    {
        "OBJECT_NAME": "GSAT0215 (GALILEO 19)",
        "OBJECT_ID": "2017-079A",
        "EPOCH": "2025-11-17T06:13:42.254112",
        "MEAN_MOTION": 1.70473835,
        "ECCENTRICITY": 0.0001619,
        "INCLINATION": 55.1394,
        "RA_OF_ASC_NODE": 227.3394,
        "ARG_OF_PERICENTER": 310.4892,
        "MEAN_ANOMALY": 49.5433,
        "EPHEMERIS_TYPE": 0,
        "CLASSIFICATION_TYPE": "U",
        "NORAD_CAT_ID": 43055,
        "ELEMENT_SET_NO": 999,
        "REV_AT_EPOCH": 4937,
        "BSTAR": 0,
        "MEAN_MOTION_DOT": -8.0e-8,
        "MEAN_MOTION_DDOT": 0
    },
    {
        "OBJECT_NAME": "GSAT0216 (GALILEO 20)",
        "OBJECT_ID": "2017-079B",
        "EPOCH": "2025-11-15T18:59:06.961056",
        "MEAN_MOTION": 1.70473909,
        "ECCENTRICITY": 0.00030349,
        "INCLINATION": 55.1404,
        "RA_OF_ASC_NODE": 227.3797,
        "ARG_OF_PERICENTER": 305.4999,
        "MEAN_ANOMALY": 54.5101,
        "EPHEMERIS_TYPE": 0,
        "CLASSIFICATION_TYPE": "U",
        "NORAD_CAT_ID": 43056,
        "ELEMENT_SET_NO": 999,
        "REV_AT_EPOCH": 4936,
        "BSTAR": 0,
        "MEAN_MOTION_DOT": -2.1e-7,
        "MEAN_MOTION_DDOT": 0
    },
    {
        "OBJECT_NAME": "GSAT0217 (GALILEO 21)",
        "OBJECT_ID": "2017-079C",
        "EPOCH": "2025-11-16T14:21:37.293984",
        "MEAN_MOTION": 1.70473813,
        "ECCENTRICITY": 0.00029527,
        "INCLINATION": 55.1382,
        "RA_OF_ASC_NODE": 227.3556,
        "ARG_OF_PERICENTER": 330.5429,
        "MEAN_ANOMALY": 29.4829,
        "EPHEMERIS_TYPE": 0,
        "CLASSIFICATION_TYPE": "U",
        "NORAD_CAT_ID": 43057,
        "ELEMENT_SET_NO": 999,
        "REV_AT_EPOCH": 4936,
        "BSTAR": 0,
        "MEAN_MOTION_DOT": -1.4e-7,
        "MEAN_MOTION_DDOT": 0
    },
    {
        "OBJECT_NAME": "GSAT0218 (GALILEO 22)",
        "OBJECT_ID": "2017-079D",
        "EPOCH": "2025-11-17T09:43:11.271648",
        "MEAN_MOTION": 1.70473922,
        "ECCENTRICITY": 0.00033653,
        "INCLINATION": 55.1381,
        "RA_OF_ASC_NODE": 227.331,
        "ARG_OF_PERICENTER": 297.7344,
        "MEAN_ANOMALY": 62.2791,
        "EPHEMERIS_TYPE": 0,
        "CLASSIFICATION_TYPE": "U",
        "NORAD_CAT_ID": 43058,
        "ELEMENT_SET_NO": 999,
        "REV_AT_EPOCH": 4940,
        "BSTAR": 0,
        "MEAN_MOTION_DOT": -7.0e-8,
        "MEAN_MOTION_DDOT": 0
    },
    {
        "OBJECT_NAME": "GSAT0221 (GALILEO 25)",
        "OBJECT_ID": "2018-060A",
        "EPOCH": "2025-11-16T17:18:22.149216",
        "MEAN_MOTION": 1.70476106,
        "ECCENTRICITY": 0.00063805,
        "INCLINATION": 57.2334,
        "RA_OF_ASC_NODE": 347.521,
        "ARG_OF_PERICENTER": 275.8944,
        "MEAN_ANOMALY": 84.0862,
        "EPHEMERIS_TYPE": 0,
        "CLASSIFICATION_TYPE": "U",
        "NORAD_CAT_ID": 43564,
        "ELEMENT_SET_NO": 999,
        "REV_AT_EPOCH": 4554,
        "BSTAR": 0,
        "MEAN_MOTION_DOT": -8.4e-7,
        "MEAN_MOTION_DDOT": 0
    },
    {
        "OBJECT_NAME": "GSAT0222 (GALILEO 26)",
        "OBJECT_ID": "2018-060B",
        "EPOCH": "2025-11-17T12:38:50.512992",
        "MEAN_MOTION": 1.70475841,
        "ECCENTRICITY": 0.0006101,
        "INCLINATION": 57.237,
        "RA_OF_ASC_NODE": 347.5022,
        "ARG_OF_PERICENTER": 256.1599,
        "MEAN_ANOMALY": 103.8257,
        "EPHEMERIS_TYPE": 0,
        "CLASSIFICATION_TYPE": "U",
        "NORAD_CAT_ID": 43565,
        "ELEMENT_SET_NO": 999,
        "REV_AT_EPOCH": 4560,
        "BSTAR": 0,
        "MEAN_MOTION_DOT": -8.2e-7,
        "MEAN_MOTION_DDOT": 0
    },
    {
        "OBJECT_NAME": "GSAT0219 (GALILEO 23)",
        "OBJECT_ID": "2018-060C",
        "EPOCH": "2025-11-17T17:57:19.793664",
        "MEAN_MOTION": 1.70476131,
        "ECCENTRICITY": 0.0005552,
        "INCLINATION": 57.2358,
        "RA_OF_ASC_NODE": 347.4977,
        "ARG_OF_PERICENTER": 280.7493,
        "MEAN_ANOMALY": 79.2417,
        "EPHEMERIS_TYPE": 0,
        "CLASSIFICATION_TYPE": "U",
        "NORAD_CAT_ID": 43566,
        "ELEMENT_SET_NO": 999,
        "REV_AT_EPOCH": 4558,
        "BSTAR": 0,
        "MEAN_MOTION_DOT": -8.1e-7,
        "MEAN_MOTION_DDOT": 0
    },
    {
        "OBJECT_NAME": "GSAT0220 (GALILEO 24)",
        "OBJECT_ID": "2018-060D",
        "EPOCH": "2025-11-16T19:06:05.677920",
        "MEAN_MOTION": 1.70476116,
        "ECCENTRICITY": 0.00057642,
        "INCLINATION": 57.236,
        "RA_OF_ASC_NODE": 347.5233,
        "ARG_OF_PERICENTER": 276.8683,
        "MEAN_ANOMALY": 83.1195,
        "EPHEMERIS_TYPE": 0,
        "CLASSIFICATION_TYPE": "U",
        "NORAD_CAT_ID": 43567,
        "ELEMENT_SET_NO": 999,
        "REV_AT_EPOCH": 4555,
        "BSTAR": 0,
        "MEAN_MOTION_DOT": -8.4e-7,
        "MEAN_MOTION_DDOT": 0
    },
    {
        "OBJECT_NAME": "GSAT0223 (GALILEO 27)",
        "OBJECT_ID": "2021-116A",
        "EPOCH": "2025-11-17T05:47:10.799808",
        "MEAN_MOTION": 1.70476233,
        "ECCENTRICITY": 0.00045849,
        "INCLINATION": 57.2251,
        "RA_OF_ASC_NODE": 347.4022,
        "ARG_OF_PERICENTER": 240.2023,
        "MEAN_ANOMALY": 123.7519,
        "EPHEMERIS_TYPE": 0,
        "CLASSIFICATION_TYPE": "U",
        "NORAD_CAT_ID": 49809,
        "ELEMENT_SET_NO": 999,
        "REV_AT_EPOCH": 2457,
        "BSTAR": 0,
        "MEAN_MOTION_DOT": -8.3e-7,
        "MEAN_MOTION_DDOT": 0
    }
]