GSAT0207 (GALILEO 15)   
1 41859U 16069A   25319.22910071  .00000040  00000+0  00000+0 0  9993
2 41859  55.3659 107.0118 0001957 337.0942  22.8824  1.70474267 55756
GSAT0212 (GALILEO 16)   
1 41860U 16069B   25320.84253299  .00000034  00000+0  00000+0 0  9990
2 41860  55.3642 106.9626 0002500  40.4027 319.5940  1.70474521 56036
GSAT0213 (GALILEO 17)   
1 41861U 16069C   25320.03697926  .00000037  00000+0  00000+0 0  9994
2 41861  55.3658 106.9924 0001705 287.8702  72.0933  1.70474784 55884
GSAT0214 (GALILEO 18)   
1 41862U 16069D   25321.94268407  .00000030  00000+0  00000+0 0  9997
2 41862  55.3657 106.9327 0000788 302.0857  57.8792  1.70474633 56048
GSAT0215 (GALILEO 19)   
1 43055U 17079A   25321.25951683 -.00000008  00000+0  00000+0 0  9990
2 43055  55.1394 227.3394 0001619 310.4892  49.5433  1.70473835 49379
GSAT0216 (GALILEO 20)   
1 43056U 17079B   25319.79105279 -.00000021  00000+0  00000+0 0  9994
2 43056  55.1404 227.3797 0003034 305.4999  54.5101  1.70473909 49363
GSAT0217 (GALILEO 21)   
1 43057U 17079C   25320.59834831 -.00000014  00000+0  00000+0 0  9990
2 43057  55.1382 227.3556 0002952 330.5429  29.4829  1.70473813 49369
GSAT0218 (GALILEO 22)   
1 43058U 17079D   25321.40499157 -.00000007  00000+0  00000+0 0  9992
2 43058  55.1381 227.3310 0003365 297.7344  62.2791  1.70473922 49405
GSAT0221 (GALILEO 25)   
1 43564U 18060A   25320.72108969 -.00000084  00000+0  00000+0 0  9992
2 43564  57.2334 347.5210 0006380 275.8944  84.0862  1.70476106 45544
GSAT0222 (GALILEO 26)   
1 43565U 18060B   25321.52697353 -.00000082  00000+0  00000+0 0  9990
2 43565  57.2370 347.5022 0006101 256.1599 103.8257  1.70475841 45605
GSAT0219 (GALILEO 23)   
1 43566U 18060C   25321.74814576 -.00000081  00000+0  00000+0 0  9992
2 43566  57.2358 347.4977 0005552 280.7493  79.2417  1.70476131 45589
GSAT0220 (GALILEO 24)   
1 43567U 18060D   25320.79589905 -.00000084  00000+0  00000+0 0  9995
2 43567  57.2360 347.5233 0005764 276.8683  83.1195  1.70476116 45558
GSAT0223 (GALILEO 27)   
1 49809U 21116A   25321.24109722 -.00000083  00000+0  00000+0 0  9991
2 49809  57.2251 347.4022 0004584 240.2023 123.7519  1.70476233 24579
